[{"OBJECT_NAME":"NUSAT-50 (NANCY ROMAN)","OBJECT_ID":"2024-149AB","EPOCH":"2026-03-09T19:15:16.765632","MEAN_MOTION":15.29713355,"ECCENTRICITY":0.00025229,"INCLINATION":97.3817,"RA_OF_ASC_NODE":150.7693,"ARG_OF_PERICENTER":238.0469,"MEAN_ANOMALY":122.0527,"EPHEMERIS_TYPE":0,"CLASSIFICATION_TYPE":"U","NORAD_CAT_ID":60493,"ELEMENT_SET_NO":999,"REV_AT_EPOCH":8693,"BSTAR":0.0004225155,"MEAN_MOTION_DOT":0.00012094,"MEAN_MOTION_DDOT":0},{"OBJECT_NAME":"STARLINK-34248","OBJECT_ID":"2025-157AA","EPOCH":"2026-03-09T23:12:31.185504","MEAN_MOTION":15.30203271,"ECCENTRICITY":0.00013447,"INCLINATION":53.161,"RA_OF_ASC_NODE":344.5631,"ARG_OF_PERICENTER":76.9158,"MEAN_ANOMALY":283.1993,"EPHEMERIS_TYPE":0,"CLASSIFICATION_TYPE":"U","NORAD_CAT_ID":64928,"ELEMENT_SET_NO":999,"REV_AT_EPOCH":3616,"BSTAR":0.00085570332,"MEAN_MOTION_DOT":0.00025072,"MEAN_MOTION_DDOT":0}]
